[{"OBJECT_NAME":"QIANFAN-27","OBJECT_ID":"2024-185J","EPOCH":"2026-03-09T22:56:55.395744","MEAN_MOTION":14.27448593,"ECCENTRICITY":0.00081881,"INCLINATION":88.9753,"RA_OF_ASC_NODE":66.6975,"ARG_OF_PERICENTER":20.0445,"MEAN_ANOMALY":340.107,"EPHEMERIS_TYPE":0,"CLASSIFICATION_TYPE":"U","NORAD_CAT_ID":61560,"ELEMENT_SET_NO":999,"REV_AT_EPOCH":8260,"BSTAR":0.00025107237,"MEAN_MOTION_DOT":6.31e-6,"MEAN_MOTION_DDOT":0},{"OBJECT_NAME":"CZ-6A DEB","OBJECT_ID":"2022-151JB","EPOCH":"2026-03-09T23:18:12.564000","MEAN_MOTION":14.46448786,"ECCENTRICITY":0.01331956,"INCLINATION":98.5943,"RA_OF_ASC_NODE":120.2778,"ARG_OF_PERICENTER":233.1782,"MEAN_ANOMALY":125.7132,"EPHEMERIS_TYPE":0,"CLASSIFICATION_TYPE":"U","NORAD_CAT_ID":54499,"ELEMENT_SET_NO":999,"REV_AT_EPOCH":17506,"BSTAR":0.00012070243,"MEAN_MOTION_DOT":4.31e-6,"MEAN_MOTION_DDOT":0}]
